{"type":"FeatureCollection","features":[{"type":"Feature","geometry":{"type":"Polygon","coordinates":[[[109.2437,-7.0956,0.0],[109.2372,-7.097,0.0],[109.2363,-7.0991,0.0],[109.2264,-7.0977,0.0],[109.2248,-7.108,0.0],[109.2215,-7.1188,0.0],[109.22,-7.1193,0.0],[109.2203,-7.1229,0.0],[109.2185,-7.1233,0.0],[109.2153,-7.1296,0.0],[109.2089,-7.1292,0.0],[109.2032,-7.1312,0.0],[109.1964,-7.1303,0.0],[109.1872,-7.1366,0.0],[109.1877,-7.1402,0.0],[109.1944,-7.1441,0.0],[109.194,-7.1485,0.0],[109.1988,-7.1477,0.0],[109.1993,-7.1459,0.0],[109.2008,-7.1476,0.0],[109.2101,-7.1453,0.0],[109.2143,-7.1486,0.0],[109.2182,-7.1554,0.0],[109.2198,-7.1516,0.0],[109.2244,-7.1507,0.0],[109.2262,-7.1481,0.0],[109.2335,-7.1485,0.0],[109.2343,-7.1508,0.0],[109.2301,-7.1565,0.0],[109.2302,-7.1601,0.0],[109.2318,-7.1604,0.0],[109.2356,-7.1577,0.0],[109.2412,-7.1591,0.0],[109.2456,-7.1572,0.0],[109.253,-7.1569,0.0],[109.2524,-7.1503,0.0],[109.2503,-7.1483,0.0],[109.2549,-7.1462,0.0],[109.2653,-7.1457,0.0],[109.2682,-7.1433,0.0],[109.2678,-7.1418,0.0],[109.2767,-7.1412,0.0],[109.2761,-7.1374,0.0],[109.2796,-7.1325,0.0],[109.2779,-7.1252,0.0],[109.2816,-7.1214,0.0],[109.2826,-7.1157,0.0],[109.289,-7.1117,0.0],[109.288,-7.1074,0.0],[109.2894,-7.105,0.0],[109.2863,-7.1049,0.0],[109.2848,-7.1032,0.0],[109.2787,-7.1043,0.0],[109.275,-7.1031,0.0],[109.273,-7.105,0.0],[109.2682,-7.1023,0.0],[109.2639,-7.1059,0.0],[109.2595,-7.1059,0.0],[109.2511,-7.0996,0.0],[109.2512,-7.0973,0.0],[109.2453,-7.0986,0.0],[109.2437,-7.0956,0.0]]]},"properties":{"KDCPUM":"33.27.01","WADMKC":"Moga"}},{"type":"Feature","geometry":{"type":"Polygon","coordinates":[[[109.28,-7.1419,0.0],[109.2774,-7.1398,0.0],[109.2746,-7.1422,0.0],[109.2678,-7.1418,0.0],[109.2682,-7.1433,0.0],[109.2653,-7.1457,0.0],[109.2526,-7.1469,0.0],[109.2499,-7.1485,0.0],[109.2524,-7.1503,0.0],[109.253,-7.1569,0.0],[109.2456,-7.1572,0.0],[109.2412,-7.1591,0.0],[109.2356,-7.1577,0.0],[109.2302,-7.1601,0.0],[109.2301,-7.1565,0.0],[109.2343,-7.1508,0.0],[109.2341,-7.1487,0.0],[109.2262,-7.1481,0.0],[109.2244,-7.1507,0.0],[109.2198,-7.1516,0.0],[109.2173,-7.1553,0.0],[109.2145,-7.1489,0.0],[109.2101,-7.1453,0.0],[109.205,-7.1473,0.0],[109.2008,-7.1476,0.0],[109.1992,-7.146,0.0],[109.1988,-7.1477,0.0],[109.194,-7.1485,0.0],[109.1883,-7.1547,0.0],[109.1878,-7.1601,0.0],[109.1892,-7.1626,0.0],[109.1944,-7.169,0.0],[109.1968,-7.1688,0.0],[109.198,-7.1706,0.0],[109.1966,-7.1827,0.0],[109.1994,-7.1923,0.0],[109.1983,-7.1965,0.0],[109.2006,-7.2045,0.0],[109.1999,-7.2244,0.0],[109.2139,-7.235,0.0],[109.2107,-7.2349,0.0],[109.2066,-7.2383,0.0],[109.2029,-7.2472,0.0],[109.219,-7.2486,0.0],[109.2242,-7.2457,0.0],[109.2257,-7.2416,0.0],[109.2246,-7.2391,0.0],[109.232,-7.237,0.0],[109.2342,-7.233,0.0],[109.2475,-7.2269,0.0],[109.255,-7.2249,0.0],[109.2666,-7.2249,0.0],[109.2752,-7.222,0.0],[109.2776,-7.2196,0.0],[109.2903,-7.2198,0.0],[109.2857,-7.205,0.0],[109.2801,-7.1972,0.0],[109.2842,-7.1913,0.0],[109.2907,-7.1874,0.0],[109.2937,-7.1822,0.0],[109.293,-7.1766,0.0],[109.2882,-7.1697,0.0],[109.2888,-7.157,0.0],[109.2845,-7.1472,0.0],[109.28,-7.1419,0.0]]]},"properties":{"KDCPUM":"33.27.02","WADMKC":"Pulosari"}},{"type":"Feature","geometry":{"type":"Polygon","coordinates":[[[109.2971,-7.1052,0.0],[109.2894,-7.1049,0.0],[109.288,-7.1074,0.0],[109.289,-7.1117,0.0],[109.2826,-7.1157,0.0],[109.2816,-7.1214,0.0],[109.2779,-7.1252,0.0],[109.2796,-7.1325,0.0],[109.2761,-7.1374,0.0],[109.2822,-7.1436,0.0],[109.2888,-7.157,0.0],[109.2882,-7.1697,0.0],[109.293,-7.1766,0.0],[109.2937,-7.1822,0.0],[109.2907,-7.1874,0.0],[109.2842,-7.1913,0.0],[109.2801,-7.1972,0.0],[109.2857,-7.205,0.0],[109.2903,-7.2198,0.0],[109.2949,-7.2162,0.0],[109.3033,-7.2166,0.0],[109.3077,-7.2145,0.0],[109.3169,-7.2142,0.0],[109.3257,-7.2095,0.0],[109.3296,-7.2111,0.0],[109.3331,-7.21,0.0],[109.3462,-7.2116,0.0],[109.3532,-7.2019,0.0],[109.3741,-7.1955,0.0],[109.3825,-7.1902,0.0],[109.3901,-7.1926,0.0],[109.3913,-7.1977,0.0],[109.4008,-7.2,0.0],[109.4068,-7.1984,0.0],[109.4075,-7.1909,0.0],[109.4051,-7.1857,0.0],[109.4076,-7.1831,0.0],[109.4098,-7.1842,0.0],[109.4113,-7.183,0.0],[109.4058,-7.1815,0.0],[109.4056,-7.178,0.0],[109.4071,-7.1776,0.0],[109.4057,-7.1755,0.0],[109.4103,-7.1754,0.0],[109.4134,-7.1682,0.0],[109.4129,-7.1662,0.0],[109.4045,-7.159,0.0],[109.3982,-7.1586,0.0],[109.3961,-7.157,0.0],[109.3928,-7.1609,0.0],[109.3896,-7.1603,0.0],[109.3893,-7.1528,0.0],[109.3922,-7.1469,0.0],[109.3814,-7.1374,0.0],[109.379,-7.131,0.0],[109.3771,-7.1301,0.0],[109.3769,-7.1322,0.0],[109.3749,-7.1313,0.0],[109.3759,-7.1302,0.0],[109.3716,-7.126,0.0],[109.3717,-7.1242,0.0],[109.366,-7.1198,0.0],[109.3599,-7.1077,0.0],[109.3463,-7.1129,0.0],[109.343,-7.1094,0.0],[109.3366,-7.1086,0.0],[109.3345,-7.1067,0.0],[109.3273,-7.1075,0.0],[109.3255,-7.1056,0.0],[109.3223,-7.1081,0.0],[109.3122,-7.1077,0.0],[109.3102,-7.1098,0.0],[109.2971,-7.1052,0.0]]]},"properties":{"KDCPUM":"33.27.03","WADMKC":"Belik"}},{"type":"Feature","geometry":{"type":"Polygon","coordinates":[[[109.452,-7.0943,0.0],[109.4481,-7.0946,0.0],[109.4462,-7.0987,0.0],[109.4406,-7.1012,0.0],[109.4411,-7.1029,0.0],[109.4395,-7.1038,0.0],[109.4295,-7.1028,0.0],[109.4278,-7.1089,0.0],[109.4177,-7.1104,0.0],[109.4143,-7.1135,0.0],[109.412,-7.1136,0.0],[109.4136,-7.1177,0.0],[109.4113,-7.1269,0.0],[109.4027,-7.1295,0.0],[109.4011,-7.1287,0.0],[109.4039,-7.1278,0.0],[109.4037,-7.1264,0.0],[109.3928,-7.1235,0.0],[109.3901,-7.1197,0.0],[109.3828,-7.1068,0.0],[109.3807,-7.0971,0.0],[109.3754,-7.0981,0.0],[109.3727,-7.1032,0.0],[109.3677,-7.1033,0.0],[109.3647,-7.1066,0.0],[109.3599,-7.1077,0.0],[109.366,-7.1198,0.0],[109.3717,-7.1242,0.0],[109.3716,-7.126,0.0],[109.3759,-7.1302,0.0],[109.3749,-7.1313,0.0],[109.3769,-7.1322,0.0],[109.3771,-7.1301,0.0],[109.379,-7.131,0.0],[109.3814,-7.1374,0.0],[109.3922,-7.1469,0.0],[109.3893,-7.1528,0.0],[109.3896,-7.1603,0.0],[109.3928,-7.1609,0.0],[109.3961,-7.157,0.0],[109.3982,-7.1586,0.0],[109.4045,-7.159,0.0],[109.4129,-7.1662,0.0],[109.4134,-7.1682,0.0],[109.4103,-7.1754,0.0],[109.4057,-7.1755,0.0],[109.4071,-7.1776,0.0],[109.4056,-7.178,0.0],[109.4058,-7.1815,0.0],[109.4113,-7.183,0.0],[109.4098,-7.1842,0.0],[109.4076,-7.1831,0.0],[109.4051,-7.1857,0.0],[109.4075,-7.1909,0.0],[109.4068,-7.1984,0.0],[109.4022,-7.1993,0.0],[109.4053,-7.2016,0.0],[109.4101,-7.2016,0.0],[109.4131,-7.1969,0.0],[109.4169,-7.1957,0.0],[109.4247,-7.186,0.0],[109.4287,-7.1862,0.0],[109.4295,-7.183,0.0],[109.4341,-7.1803,0.0],[109.4343,-7.1779,0.0],[109.4383,-7.1748,0.0],[109.4361,-7.1734,0.0],[109.4357,-7.1696,0.0],[109.4399,-7.1651,0.0],[109.4439,-7.1633,0.0],[109.4485,-7.1658,0.0],[109.4513,-7.1649,0.0],[109.4533,-7.1664,0.0],[109.4577,-7.1858,0.0],[109.4572,-7.1963,0.0],[109.4617,-7.2027,0.0],[109.467,-7.2036,0.0],[109.4696,-7.2058,0.0],[109.4695,-7.2098,0.0],[109.478,-7.2237,0.0],[109.4893,-7.2253,0.0],[109.4909,-7.2277,0.0],[109.4982,-7.23,0.0],[109.5069,-7.2392,0.0],[109.514,-7.2343,0.0],[109.5247,-7.2358,0.0],[109.5285,-7.2349,0.0],[109.5324,-7.2314,0.0],[109.5306,-7.2228,0.0],[109.5224,-7.2189,0.0],[109.5217,-7.2118,0.0],[109.5196,-7.2086,0.0],[109.5212,-7.2078,0.0],[109.5205,-7.2049,0.0],[109.5242,-7.2027,0.0],[109.5263,-7.199,0.0],[109.5249,-7.1948,0.0],[109.5228,-7.1944,0.0],[109.5206,-7.1913,0.0],[109.5206,-7.1886,0.0],[109.5179,-7.1886,0.0],[109.5188,-7.1853,0.0],[109.5167,-7.1855,0.0],[109.5175,-7.183,0.0],[109.5141,-7.1802,0.0],[109.5114,-7.1718,0.0],[109.5053,-7.168,0.0],[109.5044,-7.1556,0.0],[109.4974,-7.1412,0.0],[109.4976,-7.1385,0.0],[109.4934,-7.1344,0.0],[109.4933,-7.1301,0.0],[109.4907,-7.1289,0.0],[109.4928,-7.1276,0.0],[109.4908,-7.1221,0.0],[109.4918,-7.1198,0.0],[109.4877,-7.1172,0.0],[109.4847,-7.1178,0.0],[109.485,-7.1117,0.0],[109.4811,-7.1109,0.0],[109.4805,-7.1073,0.0],[109.4667,-7.1121,0.0],[109.4664,-7.1097,0.0],[109.4644,-7.1089,0.0],[109.4618,-7.1125,0.0],[109.458,-7.1135,0.0],[109.4524,-7.0987,0.0],[109.4543,-7.095,0.0],[109.452,-7.0943,0.0]]]},"properties":{"KDCPUM":"33.27.04","WADMKC":"Watukumpul"}},{"type":"Feature","geometry":{"type":"Polygon","coordinates":[[[109.5342,-6.919,0.0],[109.5331,-6.9186,0.0],[109.531,-6.9227,0.0],[109.5171,-6.9218,0.0],[109.5111,-6.9252,0.0],[109.5046,-6.9349,0.0],[109.5053,-6.9371,0.0],[109.5127,-6.9398,0.0],[109.5091,-6.9443,0.0],[109.5112,-6.9482,0.0],[109.5098,-6.9513,0.0],[109.5032,-6.9511,0.0],[109.4923,-6.9606,0.0],[109.4847,-6.9635,0.0],[109.4801,-6.9693,0.0],[109.4753,-6.9686,0.0],[109.4766,-6.9666,0.0],[109.4799,-6.9668,0.0],[109.4787,-6.9654,0.0],[109.4802,-6.9616,0.0],[109.4789,-6.9588,0.0],[109.4774,-6.9588,0.0],[109.4753,-6.9623,0.0],[109.4729,-6.962,0.0],[109.471,-6.9802,0.0],[109.4726,-6.9823,0.0],[109.4687,-6.9865,0.0],[109.4647,-6.9806,0.0],[109.4641,-6.9877,0.0],[109.4677,-6.9937,0.0],[109.4585,-6.9868,0.0],[109.4572,-6.9942,0.0],[109.4522,-6.994,0.0],[109.4504,-6.9956,0.0],[109.4542,-7.0046,0.0],[109.4501,-7.0125,0.0],[109.4498,-7.0166,0.0],[109.447,-7.0187,0.0],[109.4405,-7.019,0.0],[109.4395,-7.0207,0.0],[109.4426,-7.0272,0.0],[109.4402,-7.0309,0.0],[109.443,-7.0366,0.0],[109.4408,-7.041,0.0],[109.4428,-7.0467,0.0],[109.4466,-7.0494,0.0],[109.4429,-7.0542,0.0],[109.4478,-7.0614,0.0],[109.4443,-7.0672,0.0],[109.4447,-7.0724,0.0],[109.4491,-7.0794,0.0],[109.4465,-7.0881,0.0],[109.4472,-7.0922,0.0],[109.4481,-7.0946,0.0],[109.4543,-7.095,0.0],[109.4524,-7.0987,0.0],[109.458,-7.1135,0.0],[109.4618,-7.1125,0.0],[109.4644,-7.1089,0.0],[109.4664,-7.1097,0.0],[109.4667,-7.1121,0.0],[109.4805,-7.1073,0.0],[109.4811,-7.1109,0.0],[109.485,-7.1117,0.0],[109.4847,-7.1178,0.0],[109.4877,-7.1172,0.0],[109.4918,-7.1198,0.0],[109.4955,-7.1145,0.0],[109.4942,-7.1094,0.0],[109.5043,-7.1033,0.0],[109.5042,-7.0989,0.0],[109.4995,-7.0924,0.0],[109.4994,-7.0866,0.0],[109.4956,-7.0819,0.0],[109.4973,-7.0736,0.0],[109.4961,-7.0677,0.0],[109.4931,-7.0655,0.0],[109.488,-7.0555,0.0],[109.4909,-7.0479,0.0],[109.4856,-7.0454,0.0],[109.4846,-7.0435,0.0],[109.4867,-7.039,0.0],[109.4856,-7.0311,0.0],[109.4834,-7.0296,0.0],[109.4876,-7.0229,0.0],[109.4934,-7.0188,0.0],[109.4929,-7.0134,0.0],[109.4974,-7.0101,0.0],[109.4967,-7.0068,0.0],[109.4988,-7.0,0.0],[109.4952,-6.9902,0.0],[109.4975,-6.9872,0.0],[109.4956,-6.9841,0.0],[109.4986,-6.9824,0.0],[109.4978,-6.9657,0.0],[109.5079,-6.9572,0.0],[109.5126,-6.9473,0.0],[109.5193,-6.9486,0.0],[109.5212,-6.9431,0.0],[109.5269,-6.9409,0.0],[109.5326,-6.9414,0.0],[109.5339,-6.9361,0.0],[109.5369,-6.932,0.0],[109.5419,-6.9303,0.0],[109.5357,-6.9303,0.0],[109.5379,-6.9262,0.0],[109.536,-6.9246,0.0],[109.539,-6.9224,0.0],[109.5368,-6.9211,0.0],[109.5367,-6.9193,0.0],[109.5342,-6.919,0.0]]]},"properties":{"KDCPUM":"33.27.05","WADMKC":"Bodeh"}},{"type":"Feature","geometry":{"type":"Polygon","coordinates":[[[109.4003,-6.974,0.0],[109.397,-6.9708,0.0],[109.3931,-6.9802,0.0],[109.3905,-6.9819,0.0],[109.3883,-6.9797,0.0],[109.3856,-6.9811,0.0],[109.3846,-6.9794,0.0],[109.38,-6.9826,0.0],[109.3751,-6.9799,0.0],[109.3722,-6.9807,0.0],[109.367,-6.9855,0.0],[109.3681,-6.9873,0.0],[109.3661,-6.99,0.0],[109.3624,-6.9904,0.0],[109.363,-6.9915,0.0],[109.3597,-6.9928,0.0],[109.349,-6.9931,0.0],[109.3479,-6.994,0.0],[109.3487,-6.997,0.0],[109.3461,-6.9987,0.0],[109.3439,-6.9975,0.0],[109.3435,-7.0003,0.0],[109.3384,-7.0016,0.0],[109.3344,-7.0049,0.0],[109.3395,-7.0105,0.0],[109.3397,-7.0177,0.0],[109.3379,-7.0218,0.0],[109.339,-7.0248,0.0],[109.337,-7.0301,0.0],[109.344,-7.0348,0.0],[109.3408,-7.0442,0.0],[109.343,-7.0462,0.0],[109.3407,-7.0516,0.0],[109.3432,-7.0581,0.0],[109.3452,-7.058,0.0],[109.3451,-7.0596,0.0],[109.3487,-7.0629,0.0],[109.3476,-7.07,0.0],[109.3488,-7.0741,0.0],[109.3515,-7.0741,0.0],[109.35,-7.08,0.0],[109.3516,-7.0804,0.0],[109.3551,-7.0757,0.0],[109.3671,-7.0749,0.0],[109.3669,-7.0798,0.0],[109.3694,-7.0791,0.0],[109.3698,-7.081,0.0],[109.3687,-7.0854,0.0],[109.3665,-7.0852,0.0],[109.3656,-7.0883,0.0],[109.3715,-7.0889,0.0],[109.3738,-7.0835,0.0],[109.3773,-7.0827,0.0],[109.3777,-7.0807,0.0],[109.3807,-7.0816,0.0],[109.3796,-7.0848,0.0],[109.3879,-7.0887,0.0],[109.3848,-7.0946,0.0],[109.3807,-7.0971,0.0],[109.3828,-7.1068,0.0],[109.3928,-7.1235,0.0],[109.4037,-7.1264,0.0],[109.4013,-7.1297,0.0],[109.4113,-7.1269,0.0],[109.4136,-7.1177,0.0],[109.412,-7.1136,0.0],[109.4143,-7.1135,0.0],[109.4177,-7.1104,0.0],[109.4278,-7.1089,0.0],[109.4294,-7.1028,0.0],[109.4392,-7.1039,0.0],[109.4411,-7.1029,0.0],[109.4406,-7.1012,0.0],[109.4462,-7.0987,0.0],[109.4481,-7.0946,0.0],[109.4465,-7.0881,0.0],[109.4492,-7.08,0.0],[109.4446,-7.0721,0.0],[109.4445,-7.0652,0.0],[109.4478,-7.0614,0.0],[109.4429,-7.0542,0.0],[109.4466,-7.0494,0.0],[109.4428,-7.0467,0.0],[109.4408,-7.041,0.0],[109.443,-7.0366,0.0],[109.4402,-7.0309,0.0],[109.4426,-7.0272,0.0],[109.4377,-7.0198,0.0],[109.4413,-7.016,0.0],[109.4292,-7.0135,0.0],[109.4262,-7.0091,0.0],[109.4279,-7.0071,0.0],[109.43,-6.9956,0.0],[109.4276,-6.9803,0.0],[109.4061,-6.9785,0.0],[109.4065,-6.9761,0.0],[109.404,-6.9725,0.0],[109.4003,-6.974,0.0]]]},"properties":{"KDCPUM":"33.27.06","WADMKC":"Bantarbolang"}},{"type":"Feature","geometry":{"type":"Polygon","coordinates":[[[109.3165,-6.9845,0.0],[109.3117,-6.9886,0.0],[109.3016,-6.9879,0.0],[109.3014,-6.9906,0.0],[109.2939,-6.9937,0.0],[109.2904,-6.9971,0.0],[109.2888,-7.0001,0.0],[109.2916,-7.0031,0.0],[109.2881,-7.0034,0.0],[109.2884,-7.0062,0.0],[109.2859,-7.0087,0.0],[109.2888,-7.0132,0.0],[109.2865,-7.0178,0.0],[109.2877,-7.0216,0.0],[109.2825,-7.0239,0.0],[109.2829,-7.0319,0.0],[109.2788,-7.0329,0.0],[109.2756,-7.0381,0.0],[109.2773,-7.0409,0.0],[109.2758,-7.0482,0.0],[109.2781,-7.0501,0.0],[109.2777,-7.0519,0.0],[109.2812,-7.0542,0.0],[109.2829,-7.0608,0.0],[109.2881,-7.0601,0.0],[109.2881,-7.0619,0.0],[109.2839,-7.0629,0.0],[109.2863,-7.0711,0.0],[109.2846,-7.072,0.0],[109.2848,-7.0747,0.0],[109.2874,-7.077,0.0],[109.2956,-7.0742,0.0],[109.2925,-7.0822,0.0],[109.2938,-7.0832,0.0],[109.2932,-7.0872,0.0],[109.295,-7.0876,0.0],[109.2946,-7.0916,0.0],[109.2879,-7.0932,0.0],[109.2879,-7.0976,0.0],[109.2739,-7.1018,0.0],[109.2605,-7.0998,0.0],[109.2591,-7.1058,0.0],[109.2639,-7.1059,0.0],[109.2682,-7.1023,0.0],[109.273,-7.105,0.0],[109.2747,-7.1031,0.0],[109.2787,-7.1043,0.0],[109.2848,-7.1032,0.0],[109.2866,-7.105,0.0],[109.2961,-7.1042,0.0],[109.3102,-7.1098,0.0],[109.3122,-7.1077,0.0],[109.3223,-7.1081,0.0],[109.3255,-7.1056,0.0],[109.3273,-7.1075,0.0],[109.3322,-7.1064,0.0],[109.3368,-7.1086,0.0],[109.3396,-7.1081,0.0],[109.3463,-7.1129,0.0],[109.3527,-7.11,0.0],[109.3561,-7.1101,0.0],[109.3607,-7.1069,0.0],[109.3647,-7.1066,0.0],[109.3677,-7.1033,0.0],[109.3735,-7.1028,0.0],[109.3754,-7.0981,0.0],[109.3838,-7.0956,0.0],[109.3877,-7.0895,0.0],[109.3796,-7.0848,0.0],[109.3807,-7.0816,0.0],[109.3788,-7.0806,0.0],[109.3732,-7.084,0.0],[109.372,-7.0889,0.0],[109.3656,-7.0883,0.0],[109.3665,-7.0852,0.0],[109.3687,-7.0854,0.0],[109.3698,-7.081,0.0],[109.3694,-7.0791,0.0],[109.3669,-7.0798,0.0],[109.3661,-7.0745,0.0],[109.3551,-7.0757,0.0],[109.3516,-7.0804,0.0],[109.35,-7.08,0.0],[109.3515,-7.0741,0.0],[109.3488,-7.0741,0.0],[109.3476,-7.07,0.0],[109.3487,-7.0629,0.0],[109.3451,-7.0596,0.0],[109.3452,-7.058,0.0],[109.3432,-7.0581,0.0],[109.3407,-7.0516,0.0],[109.343,-7.0462,0.0],[109.3408,-7.0442,0.0],[109.344,-7.0348,0.0],[109.337,-7.0301,0.0],[109.339,-7.0248,0.0],[109.3379,-7.0218,0.0],[109.3397,-7.0177,0.0],[109.3395,-7.0105,0.0],[109.3344,-7.0049,0.0],[109.3279,-7.0063,0.0],[109.3273,-7.002,0.0],[109.3301,-7.0,0.0],[109.3233,-6.9942,0.0],[109.3217,-6.9897,0.0],[109.3188,-6.9888,0.0],[109.3165,-6.9845,0.0]]]},"properties":{"KDCPUM":"33.27.07","WADMKC":"Randudongkal"}},{"type":"Feature","geometry":{"type":"Polygon","coordinates":[[[109.4132,-6.8513,0.0],[109.3794,-6.8613,0.0],[109.351,-6.8621,0.0],[109.3517,-6.8685,0.0],[109.3581,-6.8666,0.0],[109.3599,-6.8741,0.0],[109.3601,-6.8777,0.0],[109.3585,-6.8796,0.0],[109.3593,-6.8824,0.0],[109.3567,-6.8829,0.0],[109.3539,-6.8871,0.0],[109.3557,-6.888,0.0],[109.3559,-6.8922,0.0],[109.3542,-6.8923,0.0],[109.3525,-6.8898,0.0],[109.3501,-6.8918,0.0],[109.3476,-6.8914,0.0],[109.3456,-6.8952,0.0],[109.3487,-6.8974,0.0],[109.3408,-6.9013,0.0],[109.3395,-6.9026,0.0],[109.3409,-6.9034,0.0],[109.3405,-6.9053,0.0],[109.3375,-6.9037,0.0],[109.3364,-6.9048,0.0],[109.3373,-6.9074,0.0],[109.3361,-6.909,0.0],[109.3379,-6.912,0.0],[109.3355,-6.9104,0.0],[109.3347,-6.9136,0.0],[109.3321,-6.915,0.0],[109.3339,-6.9168,0.0],[109.332,-6.9167,0.0],[109.3321,-6.9189,0.0],[109.3288,-6.9212,0.0],[109.3289,-6.9232,0.0],[109.3253,-6.9254,0.0],[109.3266,-6.9262,0.0],[109.3261,-6.9284,0.0],[109.3284,-6.927,0.0],[109.3282,-6.9288,0.0],[109.3305,-6.9294,0.0],[109.3266,-6.9349,0.0],[109.3304,-6.9362,0.0],[109.3313,-6.9343,0.0],[109.3333,-6.9362,0.0],[109.3333,-6.9389,0.0],[109.3315,-6.9399,0.0],[109.3345,-6.9459,0.0],[109.3317,-6.9462,0.0],[109.3317,-6.9503,0.0],[109.3293,-6.955,0.0],[109.3315,-6.9573,0.0],[109.3328,-6.9546,0.0],[109.336,-6.9564,0.0],[109.3318,-6.9582,0.0],[109.3313,-6.9639,0.0],[109.3296,-6.9636,0.0],[109.3295,-6.9607,0.0],[109.3224,-6.9634,0.0],[109.3254,-6.9651,0.0],[109.3255,-6.9671,0.0],[109.3237,-6.969,0.0],[109.3228,-6.9665,0.0],[109.3204,-6.966,0.0],[109.3223,-6.9697,0.0],[109.3212,-6.9729,0.0],[109.319,-6.9718,0.0],[109.3168,-6.9672,0.0],[109.3162,-6.9687,0.0],[109.3167,-6.9739,0.0],[109.3193,-6.9766,0.0],[109.3162,-6.9794,0.0],[109.3153,-6.9844,0.0],[109.3301,-7.0,0.0],[109.3273,-7.002,0.0],[109.3279,-7.0063,0.0],[109.3364,-7.0043,0.0],[109.3378,-7.0019,0.0],[109.3441,-6.9998,0.0],[109.3439,-6.9975,0.0],[109.3469,-6.9983,0.0],[109.3487,-6.997,0.0],[109.3479,-6.994,0.0],[109.349,-6.9931,0.0],[109.3597,-6.9928,0.0],[109.363,-6.9915,0.0],[109.3624,-6.9904,0.0],[109.3661,-6.99,0.0],[109.3681,-6.9873,0.0],[109.367,-6.9855,0.0],[109.3722,-6.9807,0.0],[109.3751,-6.9799,0.0],[109.38,-6.9826,0.0],[109.3846,-6.9794,0.0],[109.3856,-6.9811,0.0],[109.3883,-6.9797,0.0],[109.3905,-6.9819,0.0],[109.3931,-6.9802,0.0],[109.397,-6.9708,0.0],[109.4003,-6.974,0.0],[109.4026,-6.9728,0.0],[109.3971,-6.9657,0.0],[109.3927,-6.9634,0.0],[109.3907,-6.9577,0.0],[109.3928,-6.9571,0.0],[109.3944,-6.9601,0.0],[109.3994,-6.9584,0.0],[109.3958,-6.9533,0.0],[109.3999,-6.9494,0.0],[109.4042,-6.9495,0.0],[109.4088,-6.9424,0.0],[109.4075,-6.9404,0.0],[109.4093,-6.9377,0.0],[109.4057,-6.9388,0.0],[109.4018,-6.9367,0.0],[109.4047,-6.9301,0.0],[109.4033,-6.9315,0.0],[109.4012,-6.9308,0.0],[109.402,-6.9295,0.0],[109.3999,-6.9287,0.0],[109.3996,-6.9248,0.0],[109.3956,-6.926,0.0],[109.3955,-6.9277,0.0],[109.3903,-6.9224,0.0],[109.3892,-6.9253,0.0],[109.3892,-6.918,0.0],[109.3916,-6.9168,0.0],[109.39,-6.915,0.0],[109.3905,-6.9003,0.0],[109.3958,-6.9005,0.0],[109.3962,-6.8983,0.0],[109.3947,-6.898,0.0],[109.3955,-6.8948,0.0],[109.394,-6.8998,0.0],[109.3922,-6.8993,0.0],[109.3929,-6.8907,0.0],[109.3988,-6.8917,0.0],[109.397,-6.8908,0.0],[109.396,-6.8873,0.0],[109.3949,-6.8715,0.0],[109.4008,-6.8709,0.0],[109.4013,-6.8739,0.0],[109.4053,-6.8751,0.0],[109.4055,-6.8607,0.0],[109.4166,-6.8577,0.0],[109.4132,-6.8513,0.0]]]},"properties":{"KDCPUM":"33.27.08","WADMKC":"Pemalang"}},{"type":"Feature","geometry":{"type":"Polygon","coordinates":[[[109.4423,-6.8483,0.0],[109.446,-6.8445,0.0],[109.4452,-6.8413,0.0],[109.4415,-6.8398,0.0],[109.4214,-6.8481,0.0],[109.4121,-6.8494,0.0],[109.4166,-6.8577,0.0],[109.4055,-6.8607,0.0],[109.4053,-6.8751,0.0],[109.4013,-6.8739,0.0],[109.4008,-6.8709,0.0],[109.3947,-6.8719,0.0],[109.396,-6.8873,0.0],[109.397,-6.8908,0.0],[109.3988,-6.8917,0.0],[109.3929,-6.8907,0.0],[109.3922,-6.8993,0.0],[109.394,-6.8998,0.0],[109.395,-6.8947,0.0],[109.3947,-6.898,0.0],[109.3962,-6.8983,0.0],[109.3958,-6.9005,0.0],[109.3905,-6.9003,0.0],[109.39,-6.915,0.0],[109.3916,-6.9168,0.0],[109.3892,-6.918,0.0],[109.3892,-6.9253,0.0],[109.3903,-6.9224,0.0],[109.3955,-6.9277,0.0],[109.3956,-6.926,0.0],[109.3996,-6.9248,0.0],[109.3999,-6.9287,0.0],[109.402,-6.9295,0.0],[109.4012,-6.9308,0.0],[109.4033,-6.9315,0.0],[109.4047,-6.9301,0.0],[109.4018,-6.9367,0.0],[109.4057,-6.9388,0.0],[109.4093,-6.9378,0.0],[109.4075,-6.9404,0.0],[109.4088,-6.9424,0.0],[109.4042,-6.9495,0.0],[109.3999,-6.9494,0.0],[109.3958,-6.9533,0.0],[109.3994,-6.9584,0.0],[109.3944,-6.9601,0.0],[109.3928,-6.9571,0.0],[109.3907,-6.9579,0.0],[109.3927,-6.9634,0.0],[109.4043,-6.9728,0.0],[109.4065,-6.9761,0.0],[109.4061,-6.9785,0.0],[109.4274,-6.9796,0.0],[109.4285,-6.9773,0.0],[109.4294,-6.9784,0.0],[109.4315,-6.9768,0.0],[109.4316,-6.9732,0.0],[109.43,-6.973,0.0],[109.4289,-6.9684,0.0],[109.4319,-6.9555,0.0],[109.4406,-6.9576,0.0],[109.4471,-6.9573,0.0],[109.4484,-6.9519,0.0],[109.4454,-6.9511,0.0],[109.4468,-6.947,0.0],[109.4492,-6.9473,0.0],[109.4506,-6.9447,0.0],[109.4543,-6.9452,0.0],[109.459,-6.9485,0.0],[109.4585,-6.9454,0.0],[109.4608,-6.9401,0.0],[109.4595,-6.9379,0.0],[109.4601,-6.9345,0.0],[109.4586,-6.9315,0.0],[109.4557,-6.9303,0.0],[109.4583,-6.926,0.0],[109.4578,-6.9231,0.0],[109.4529,-6.9212,0.0],[109.4542,-6.9154,0.0],[109.4473,-6.9134,0.0],[109.4398,-6.9161,0.0],[109.4378,-6.9156,0.0],[109.4378,-6.9135,0.0],[109.4349,-6.9136,0.0],[109.4335,-6.9104,0.0],[109.437,-6.9027,0.0],[109.435,-6.9007,0.0],[109.4368,-6.8962,0.0],[109.4362,-6.8925,0.0],[109.4409,-6.8921,0.0],[109.4404,-6.8868,0.0],[109.4423,-6.8833,0.0],[109.4433,-6.8755,0.0],[109.44,-6.8742,0.0],[109.4406,-6.8662,0.0],[109.4426,-6.8577,0.0],[109.4463,-6.853,0.0],[109.446,-6.8488,0.0],[109.4444,-6.8482,0.0],[109.4469,-6.8465,0.0],[109.4423,-6.8483,0.0]]]},"properties":{"KDCPUM":"33.27.09","WADMKC":"Taman"}},{"type":"Feature","geometry":{"type":"Polygon","coordinates":[[[109.4954,-6.8283,0.0],[109.4942,-6.8266,0.0],[109.4973,-6.8175,0.0],[109.4947,-6.8151,0.0],[109.4928,-6.8051,0.0],[109.4681,-6.8244,0.0],[109.4415,-6.8395,0.0],[109.4456,-6.8419,0.0],[109.446,-6.8445,0.0],[109.442,-6.848,0.0],[109.4469,-6.8465,0.0],[109.4444,-6.8482,0.0],[109.446,-6.8488,0.0],[109.4463,-6.853,0.0],[109.4426,-6.8577,0.0],[109.4406,-6.8662,0.0],[109.44,-6.8742,0.0],[109.4433,-6.8755,0.0],[109.4423,-6.8833,0.0],[109.4404,-6.8868,0.0],[109.4409,-6.8921,0.0],[109.4362,-6.8925,0.0],[109.4368,-6.8962,0.0],[109.435,-6.9007,0.0],[109.437,-6.9027,0.0],[109.4335,-6.9104,0.0],[109.4349,-6.9136,0.0],[109.4378,-6.9135,0.0],[109.4378,-6.9156,0.0],[109.4398,-6.9161,0.0],[109.4473,-6.9134,0.0],[109.4542,-6.9154,0.0],[109.4529,-6.9212,0.0],[109.4578,-6.9231,0.0],[109.4583,-6.927,0.0],[109.4556,-6.93,0.0],[109.46,-6.9342,0.0],[109.4595,-6.9379,0.0],[109.4608,-6.94,0.0],[109.4585,-6.9454,0.0],[109.459,-6.9485,0.0],[109.4543,-6.9452,0.0],[109.4506,-6.9447,0.0],[109.4492,-6.9473,0.0],[109.4468,-6.947,0.0],[109.4454,-6.9511,0.0],[109.4484,-6.9519,0.0],[109.4471,-6.9573,0.0],[109.4521,-6.9561,0.0],[109.4587,-6.951,0.0],[109.4753,-6.9505,0.0],[109.4761,-6.9476,0.0],[109.4798,-6.9456,0.0],[109.4808,-6.9414,0.0],[109.4838,-6.9389,0.0],[109.4818,-6.936,0.0],[109.4839,-6.9318,0.0],[109.4881,-6.9301,0.0],[109.4892,-6.9263,0.0],[109.4917,-6.9266,0.0],[109.4918,-6.9235,0.0],[109.4955,-6.9191,0.0],[109.4945,-6.9139,0.0],[109.4968,-6.9095,0.0],[109.4947,-6.9052,0.0],[109.4962,-6.9045,0.0],[109.4943,-6.9037,0.0],[109.4966,-6.9016,0.0],[109.4951,-6.9005,0.0],[109.4969,-6.9004,0.0],[109.4973,-6.8983,0.0],[109.5041,-6.8993,0.0],[109.5055,-6.8935,0.0],[109.498,-6.8923,0.0],[109.5057,-6.8813,0.0],[109.5018,-6.8798,0.0],[109.5056,-6.8665,0.0],[109.5099,-6.861,0.0],[109.5059,-6.8598,0.0],[109.5047,-6.8656,0.0],[109.4994,-6.8655,0.0],[109.4974,-6.8681,0.0],[109.4964,-6.8671,0.0],[109.4974,-6.8617,0.0],[109.5031,-6.8566,0.0],[109.4932,-6.8552,0.0],[109.4912,-6.8503,0.0],[109.4925,-6.8482,0.0],[109.499,-6.8498,0.0],[109.5017,-6.8532,0.0],[109.5038,-6.8527,0.0],[109.5051,-6.8422,0.0],[109.5013,-6.8427,0.0],[109.4985,-6.8464,0.0],[109.4956,-6.8453,0.0],[109.5009,-6.837,0.0],[109.5069,-6.8354,0.0],[109.5029,-6.8333,0.0],[109.494,-6.8371,0.0],[109.4934,-6.8345,0.0],[109.5003,-6.8293,0.0],[109.4985,-6.8276,0.0],[109.4954,-6.8283,0.0]]]},"properties":{"KDCPUM":"33.27.10","WADMKC":"Petarukan"}},{"type":"Feature","geometry":{"type":"Polygon","coordinates":[[[109.5118,-6.8672,0.0],[109.5161,-6.8653,0.0],[109.5149,-6.8625,0.0],[109.5121,-6.8623,0.0],[109.5089,-6.8677,0.0],[109.5061,-6.8667,0.0],[109.5042,-6.871,0.0],[109.5018,-6.8798,0.0],[109.5057,-6.8813,0.0],[109.498,-6.8923,0.0],[109.5055,-6.8935,0.0],[109.5041,-6.8993,0.0],[109.4973,-6.8983,0.0],[109.4969,-6.9004,0.0],[109.4951,-6.9005,0.0],[109.4966,-6.9016,0.0],[109.4943,-6.9037,0.0],[109.4962,-6.9045,0.0],[109.4947,-6.9052,0.0],[109.4968,-6.9095,0.0],[109.4945,-6.9139,0.0],[109.4955,-6.9191,0.0],[109.4918,-6.9235,0.0],[109.4917,-6.9266,0.0],[109.4892,-6.9263,0.0],[109.4881,-6.9301,0.0],[109.4839,-6.9318,0.0],[109.4818,-6.936,0.0],[109.4838,-6.9389,0.0],[109.4808,-6.9414,0.0],[109.4798,-6.9456,0.0],[109.4761,-6.9476,0.0],[109.4753,-6.9505,0.0],[109.4587,-6.951,0.0],[109.4521,-6.9561,0.0],[109.447,-6.9573,0.0],[109.4406,-6.9576,0.0],[109.4319,-6.9555,0.0],[109.4309,-6.957,0.0],[109.4318,-6.9587,0.0],[109.4289,-6.9684,0.0],[109.43,-6.973,0.0],[109.4316,-6.9732,0.0],[109.4315,-6.9768,0.0],[109.4294,-6.9784,0.0],[109.4285,-6.9773,0.0],[109.4271,-6.9797,0.0],[109.43,-6.9956,0.0],[109.4279,-7.0071,0.0],[109.4262,-7.0091,0.0],[109.4292,-7.0135,0.0],[109.4412,-7.0158,0.0],[109.4382,-7.0183,0.0],[109.4384,-7.0203,0.0],[109.4418,-7.0185,0.0],[109.447,-7.0187,0.0],[109.4498,-7.0166,0.0],[109.4501,-7.0125,0.0],[109.4542,-7.0046,0.0],[109.4504,-6.9956,0.0],[109.4522,-6.994,0.0],[109.4572,-6.9942,0.0],[109.4585,-6.9868,0.0],[109.4677,-6.9937,0.0],[109.4641,-6.9877,0.0],[109.4647,-6.9806,0.0],[109.4687,-6.9865,0.0],[109.4726,-6.9823,0.0],[109.471,-6.9802,0.0],[109.4729,-6.962,0.0],[109.4753,-6.9623,0.0],[109.4774,-6.9588,0.0],[109.4789,-6.9588,0.0],[109.4802,-6.9616,0.0],[109.4787,-6.9654,0.0],[109.4799,-6.9668,0.0],[109.4766,-6.9666,0.0],[109.4753,-6.9686,0.0],[109.4801,-6.9693,0.0],[109.4847,-6.9635,0.0],[109.4923,-6.9606,0.0],[109.5032,-6.9511,0.0],[109.5098,-6.9513,0.0],[109.5112,-6.9482,0.0],[109.5091,-6.9443,0.0],[109.5127,-6.9398,0.0],[109.5053,-6.9371,0.0],[109.5046,-6.9349,0.0],[109.5111,-6.9252,0.0],[109.5171,-6.9218,0.0],[109.531,-6.9227,0.0],[109.5328,-6.9208,0.0],[109.5297,-6.9073,0.0],[109.5243,-6.8984,0.0],[109.5219,-6.8855,0.0],[109.5158,-6.8742,0.0],[109.5212,-6.8749,0.0],[109.522,-6.872,0.0],[109.5187,-6.8695,0.0],[109.5145,-6.873,0.0],[109.5107,-6.8688,0.0],[109.5118,-6.8672,0.0]]]},"properties":{"KDCPUM":"33.27.11","WADMKC":"Ampelgading"}},{"type":"Feature","geometry":{"type":"Polygon","coordinates":[[[109.5267,-6.8462,0.0],[109.5211,-6.8458,0.0],[109.519,-6.8478,0.0],[109.5169,-6.8473,0.0],[109.5155,-6.8532,0.0],[109.5133,-6.8525,0.0],[109.5137,-6.8499,0.0],[109.5098,-6.8487,0.0],[109.5094,-6.8502,0.0],[109.5053,-6.8493,0.0],[109.5023,-6.8533,0.0],[109.4985,-6.8496,0.0],[109.4925,-6.8482,0.0],[109.4912,-6.8528,0.0],[109.4939,-6.8555,0.0],[109.5031,-6.8566,0.0],[109.4974,-6.8617,0.0],[109.4964,-6.8671,0.0],[109.4974,-6.8681,0.0],[109.4994,-6.8655,0.0],[109.5047,-6.8656,0.0],[109.5046,-6.8613,0.0],[109.508,-6.8596,0.0],[109.5097,-6.862,0.0],[109.5056,-6.8665,0.0],[109.5089,-6.8677,0.0],[109.5117,-6.8627,0.0],[109.514,-6.8621,0.0],[109.5163,-6.8649,0.0],[109.511,-6.868,0.0],[109.5121,-6.8707,0.0],[109.5158,-6.873,0.0],[109.5185,-6.8695,0.0],[109.5214,-6.8708,0.0],[109.5217,-6.8745,0.0],[109.5171,-6.8739,0.0],[109.5161,-6.8756,0.0],[109.5219,-6.8855,0.0],[109.5252,-6.901,0.0],[109.5297,-6.9073,0.0],[109.5331,-6.9186,0.0],[109.5367,-6.9193,0.0],[109.5368,-6.9211,0.0],[109.539,-6.9224,0.0],[109.536,-6.9246,0.0],[109.5379,-6.9262,0.0],[109.5357,-6.9303,0.0],[109.5458,-6.9301,0.0],[109.5492,-6.9262,0.0],[109.5518,-6.9261,0.0],[109.5537,-6.9229,0.0],[109.5558,-6.9225,0.0],[109.5586,-6.9251,0.0],[109.5616,-6.9239,0.0],[109.5614,-6.92,0.0],[109.5525,-6.9186,0.0],[109.5532,-6.9143,0.0],[109.5511,-6.9166,0.0],[109.5524,-6.9026,0.0],[109.55,-6.897,0.0],[109.5513,-6.8919,0.0],[109.5616,-6.8941,0.0],[109.5616,-6.8919,0.0],[109.5608,-6.8894,0.0],[109.5477,-6.8878,0.0],[109.548,-6.8835,0.0],[109.5452,-6.8821,0.0],[109.5438,-6.8781,0.0],[109.5452,-6.8731,0.0],[109.5429,-6.8715,0.0],[109.5442,-6.8677,0.0],[109.5301,-6.8581,0.0],[109.5307,-6.8566,0.0],[109.5345,-6.8577,0.0],[109.5364,-6.8529,0.0],[109.5259,-6.8486,0.0],[109.5267,-6.8462,0.0]]]},"properties":{"KDCPUM":"33.27.12","WADMKC":"Comal"}},{"type":"Feature","geometry":{"type":"Polygon","coordinates":[[[109.523,-6.7745,0.0],[109.5192,-6.7779,0.0],[109.5199,-6.7809,0.0],[109.522,-6.7813,0.0],[109.5197,-6.7828,0.0],[109.5221,-6.7847,0.0],[109.5187,-6.7872,0.0],[109.5188,-6.7897,0.0],[109.5101,-6.7907,0.0],[109.5087,-6.7867,0.0],[109.5114,-6.7862,0.0],[109.5119,-6.7839,0.0],[109.5104,-6.7845,0.0],[109.5061,-6.788,0.0],[109.5078,-6.7892,0.0],[109.5064,-6.7887,0.0],[109.5049,-6.7909,0.0],[109.5065,-6.7922,0.0],[109.5052,-6.7918,0.0],[109.5018,-6.7955,0.0],[109.5053,-6.7972,0.0],[109.5033,-6.7986,0.0],[109.5047,-6.8002,0.0],[109.5003,-6.8005,0.0],[109.4986,-6.7995,0.0],[109.4995,-6.7982,0.0],[109.4928,-6.8046,0.0],[109.4947,-6.8151,0.0],[109.4973,-6.8175,0.0],[109.4943,-6.8274,0.0],[109.4994,-6.8278,0.0],[109.5003,-6.8291,0.0],[109.4932,-6.8356,0.0],[109.4954,-6.837,0.0],[109.5035,-6.8332,0.0],[109.5069,-6.8354,0.0],[109.5009,-6.837,0.0],[109.4956,-6.8453,0.0],[109.4985,-6.8464,0.0],[109.5013,-6.8427,0.0],[109.5047,-6.8419,0.0],[109.5048,-6.8503,0.0],[109.5116,-6.8491,0.0],[109.5137,-6.8499,0.0],[109.5133,-6.8525,0.0],[109.5155,-6.8532,0.0],[109.5169,-6.8473,0.0],[109.5246,-6.8455,0.0],[109.5267,-6.8462,0.0],[109.5259,-6.8486,0.0],[109.5364,-6.8529,0.0],[109.5345,-6.8577,0.0],[109.5307,-6.8566,0.0],[109.5301,-6.8581,0.0],[109.5442,-6.8677,0.0],[109.5429,-6.8715,0.0],[109.5452,-6.8731,0.0],[109.5438,-6.8781,0.0],[109.5452,-6.8821,0.0],[109.548,-6.8835,0.0],[109.5477,-6.8878,0.0],[109.5611,-6.89,0.0],[109.5616,-6.8941,0.0],[109.5513,-6.8919,0.0],[109.55,-6.897,0.0],[109.5524,-6.9026,0.0],[109.5511,-6.9166,0.0],[109.5532,-6.9143,0.0],[109.5525,-6.9186,0.0],[109.5626,-6.9202,0.0],[109.563,-6.9146,0.0],[109.561,-6.9126,0.0],[109.5649,-6.9071,0.0],[109.5628,-6.9,0.0],[109.5659,-6.8986,0.0],[109.5658,-6.8957,0.0],[109.5676,-6.8941,0.0],[109.5655,-6.8928,0.0],[109.5677,-6.8902,0.0],[109.5658,-6.8852,0.0],[109.569,-6.8821,0.0],[109.5761,-6.8826,0.0],[109.5761,-6.8778,0.0],[109.5822,-6.8766,0.0],[109.5796,-6.8745,0.0],[109.5839,-6.8724,0.0],[109.5834,-6.8702,0.0],[109.5858,-6.8688,0.0],[109.5835,-6.8676,0.0],[109.5844,-6.8647,0.0],[109.5862,-6.8647,0.0],[109.5842,-6.8623,0.0],[109.5876,-6.8641,0.0],[109.5885,-6.863,0.0],[109.5862,-6.8613,0.0],[109.5884,-6.8586,0.0],[109.5838,-6.8593,0.0],[109.5835,-6.8565,0.0],[109.5852,-6.8545,0.0],[109.5834,-6.8533,0.0],[109.5839,-6.8503,0.0],[109.5857,-6.8512,0.0],[109.5891,-6.85,0.0],[109.5958,-6.8415,0.0],[109.5788,-6.8387,0.0],[109.5658,-6.8321,0.0],[109.5544,-6.8219,0.0],[109.55,-6.8266,0.0],[109.5434,-6.82,0.0],[109.546,-6.818,0.0],[109.5444,-6.8149,0.0],[109.5399,-6.8159,0.0],[109.5353,-6.8149,0.0],[109.5362,-6.8084,0.0],[109.5382,-6.8066,0.0],[109.534,-6.8041,0.0],[109.5356,-6.8016,0.0],[109.5334,-6.7975,0.0],[109.5285,-6.7939,0.0],[109.5294,-6.7904,0.0],[109.5278,-6.7907,0.0],[109.5275,-6.7893,0.0],[109.5279,-6.782,0.0],[109.5243,-6.7814,0.0],[109.5274,-6.7805,0.0],[109.5251,-6.778,0.0],[109.5257,-6.7748,0.0],[109.523,-6.7745,0.0]]]},"properties":{"KDCPUM":"33.27.13","WADMKC":"Ulujami"}},{"type":"Feature","geometry":{"type":"Polygon","coordinates":[[[109.2788,-7.0529,0.0],[109.2758,-7.0482,0.0],[109.2756,-7.0528,0.0],[109.2728,-7.0564,0.0],[109.2666,-7.0589,0.0],[109.2642,-7.0582,0.0],[109.2617,-7.0608,0.0],[109.2536,-7.0636,0.0],[109.2524,-7.0673,0.0],[109.2497,-7.0685,0.0],[109.25,-7.0721,0.0],[109.2448,-7.0728,0.0],[109.2449,-7.075,0.0],[109.2414,-7.073,0.0],[109.2374,-7.0745,0.0],[109.2364,-7.0776,0.0],[109.2347,-7.0775,0.0],[109.2336,-7.0827,0.0],[109.2318,-7.0831,0.0],[109.2325,-7.0852,0.0],[109.2301,-7.0848,0.0],[109.2307,-7.0893,0.0],[109.229,-7.0903,0.0],[109.2305,-7.0919,0.0],[109.228,-7.0918,0.0],[109.2289,-7.0932,0.0],[109.2273,-7.0939,0.0],[109.2282,-7.0953,0.0],[109.2269,-7.0977,0.0],[109.2363,-7.0991,0.0],[109.2372,-7.097,0.0],[109.2438,-7.095,0.0],[109.2453,-7.0986,0.0],[109.2512,-7.0974,0.0],[109.2511,-7.0996,0.0],[109.2591,-7.1058,0.0],[109.2605,-7.0998,0.0],[109.2646,-7.1012,0.0],[109.2714,-7.1005,0.0],[109.2732,-7.1019,0.0],[109.2879,-7.0976,0.0],[109.2879,-7.0932,0.0],[109.2946,-7.0916,0.0],[109.295,-7.0876,0.0],[109.2932,-7.0872,0.0],[109.2938,-7.0832,0.0],[109.2925,-7.0822,0.0],[109.2956,-7.0742,0.0],[109.2874,-7.077,0.0],[109.2848,-7.0747,0.0],[109.2846,-7.072,0.0],[109.2863,-7.0711,0.0],[109.2839,-7.0629,0.0],[109.2881,-7.0619,0.0],[109.2881,-7.0601,0.0],[109.2829,-7.0608,0.0],[109.2819,-7.0555,0.0],[109.2788,-7.0529,0.0]]]},"properties":{"KDCPUM":"33.27.14","WADMKC":"Warungpring"}}]}